{
  "type": "FeatureCollection",
  "features": [
    {
      "type": "Feature",
      "properties": {
        "norad_id": 37600,
        "name": "FENGYUN 1C DEB",
        "group": "fengyun-1c-debris",
        "lat": -61.63027488445718,
        "lon": -44.10074065192863,
        "alt_km": 1157.8260045422776,
        "timestamp": "2025-12-22T14:45:57.692361+00:00",
        "meta_object_name": "FENGYUN 1C DEB",
        "meta_object_id": "1999-025EKU",
        "meta_epoch": "2025-12-21T16:44:55.269888",
        "meta_mean_motion": 13.82620131,
        "meta_eccentricity": 0.03567199,
        "meta_inclination": 98.9342,
        "meta_ra_of_asc_node": 151.9626,
        "meta_arg_of_pericenter": 25.2746,
        "meta_mean_anomaly": 336.5397,
        "meta_ephemeris_type": 0,
        "meta_classification_type": "U",
        "meta_norad_cat_id": 37600,
        "meta_element_set_no": 999,
        "meta_rev_at_epoch": 88611,
        "meta_bstar": 0.0021018419,
        "meta_mean_motion_dot": 3.679e-05,
        "meta_mean_motion_ddot": 0,
        "tle_line1": "1 37600U 99025EKU 25355.69786192  .00003679  00000+0  21018-2 0  9997",
        "tle_line2": "2 37600  98.9342 151.9626 0356719  25.2746 336.5397 13.82620131886117"
      },
      "geometry": {
        "type": "Point",
        "coordinates": [
          -44.10074065192863,
          -61.63027488445718
        ]
      }
    },
    {
      "type": "Feature",
      "properties": {
        "norad_id": 37683,
        "name": "FENGYUN 1C DEB",
        "group": "fengyun-1c-debris",
        "lat": -42.41786717819189,
        "lon": 86.9083520282114,
        "alt_km": 1366.6995487997929,
        "timestamp": "2025-12-22T14:45:57.692372+00:00",
        "meta_object_name": "FENGYUN 1C DEB",
        "meta_object_id": "1999-025EKY",
        "meta_epoch": "2025-12-16T14:04:04.253376",
        "meta_mean_motion": 13.31921563,
        "meta_eccentricity": 0.05852836,
        "meta_inclination": 98.0024,
        "meta_ra_of_asc_node": 269.5626,
        "meta_arg_of_pericenter": 115.2366,
        "meta_mean_anomaly": 8.0049,
        "meta_ephemeris_type": 0,
        "meta_classification_type": "U",
        "meta_norad_cat_id": 37683,
        "meta_element_set_no": 999,
        "meta_rev_at_epoch": 29291,
        "meta_bstar": 0.0012826469,
        "meta_mean_motion_dot": 1.595e-05,
        "meta_mean_motion_ddot": 0,
        "tle_line1": "1 37683U 99025EKY 25350.58616034  .00001595  00000+0  12826-2 0  9990",
        "tle_line2": "2 37683  98.0024 269.5626 0585283 115.2366   8.0049 13.31921563292911"
      },
      "geometry": {
        "type": "Point",
        "coordinates": [
          86.9083520282114,
          -42.41786717819189
        ]
      }
    },
    {
      "type": "Feature",
      "properties": {
        "norad_id": 37686,
        "name": "FENGYUN 1C DEB",
        "group": "fengyun-1c-debris",
        "lat": -2.707876912704539,
        "lon": 14.34680253188133,
        "alt_km": 849.7917922614997,
        "timestamp": "2025-12-22T14:45:57.692382+00:00",
        "meta_object_name": "FENGYUN 1C DEB",
        "meta_object_id": "1999-025ELB",
        "meta_epoch": "2025-12-15T20:02:19.291200",
        "meta_mean_motion": 13.35366399,
        "meta_eccentricity": 0.03959537,
        "meta_inclination": 99.0216,
        "meta_ra_of_asc_node": 7.9106,
        "meta_arg_of_pericenter": 34.5937,
        "meta_mean_anomaly": 145.9696,
        "meta_ephemeris_type": 0,
        "meta_classification_type": "U",
        "meta_norad_cat_id": 37686,
        "meta_element_set_no": 999,
        "meta_rev_at_epoch": 60668,
        "meta_bstar": 0.00056833835,
        "meta_mean_motion_dot": 4.14e-06,
        "meta_mean_motion_ddot": 0,
        "tle_line1": "1 37686U 99025ELB 25349.83494550  .00000414  00000+0  56834-3 0  9993",
        "tle_line2": "2 37686  99.0216   7.9106 0395953  34.5937 145.9696 13.35366399606681"
      },
      "geometry": {
        "type": "Point",
        "coordinates": [
          14.34680253188133,
          -2.707876912704539
        ]
      }
    },
    {
      "type": "Feature",
      "properties": {
        "norad_id": 37687,
        "name": "FENGYUN 1C DEB",
        "group": "fengyun-1c-debris",
        "lat": 26.840029816902927,
        "lon": 26.35022367732102,
        "alt_km": 801.0822259740808,
        "timestamp": "2025-12-22T14:45:57.692392+00:00",
        "meta_object_name": "FENGYUN 1C DEB",
        "meta_object_id": "1999-025ELC",
        "meta_epoch": "2025-12-20T21:38:24.171360",
        "meta_mean_motion": 13.85399674,
        "meta_eccentricity": 0.0333437,
        "meta_inclination": 98.2039,
        "meta_ra_of_asc_node": 29.0329,
        "meta_arg_of_pericenter": 336.128,
        "meta_mean_anomaly": 146.3028,
        "meta_ephemeris_type": 0,
        "meta_classification_type": "U",
        "meta_norad_cat_id": 37687,
        "meta_element_set_no": 999,
        "meta_rev_at_epoch": 83367,
        "meta_bstar": 0.0022813,
        "meta_mean_motion_dot": 3.975e-05,
        "meta_mean_motion_ddot": 0,
        "tle_line1": "1 37687U 99025ELC 25354.90166865  .00003975  00000+0  22813-2 0  9997",
        "tle_line2": "2 37687  98.2039  29.0329 0333437 336.1280 146.3028 13.85399674833671"
      },
      "geometry": {
        "type": "Point",
        "coordinates": [
          26.35022367732102,
          26.840029816902927
        ]
      }
    },
    {
      "type": "Feature",
      "properties": {
        "norad_id": 37689,
        "name": "FENGYUN 1C DEB",
        "group": "fengyun-1c-debris",
        "lat": 37.784164664994805,
        "lon": -134.9183355188724,
        "alt_km": 721.3504594113365,
        "timestamp": "2025-12-22T14:45:57.692402+00:00",
        "meta_object_name": "FENGYUN 1C DEB",
        "meta_object_id": "1999-025ELE",
        "meta_epoch": "2025-12-16T22:11:39.439392",
        "meta_mean_motion": 14.48718217,
        "meta_eccentricity": 0.00208957,
        "meta_inclination": 98.9198,
        "meta_ra_of_asc_node": 32.0803,
        "meta_arg_of_pericenter": 227.3129,
        "meta_mean_anomaly": 132.6303,
        "meta_ephemeris_type": 0,
        "meta_classification_type": "U",
        "meta_norad_cat_id": 37689,
        "meta_element_set_no": 999,
        "meta_rev_at_epoch": 57873,
        "meta_bstar": 0.0018942734,
        "meta_mean_motion_dot": 7.118e-05,
        "meta_mean_motion_ddot": 0,
        "tle_line1": "1 37689U 99025ELE 25350.92476203  .00007118  00000+0  18943-2 0  9999",
        "tle_line2": "2 37689  98.9198  32.0803 0020895 227.3129 132.6303 14.48718217578736"
      },
      "geometry": {
        "type": "Point",
        "coordinates": [
          -134.9183355188724,
          37.784164664994805
        ]
      }
    },
    {
      "type": "Feature",
      "properties": {
        "norad_id": 37691,
        "name": "FENGYUN 1C DEB",
        "group": "fengyun-1c-debris",
        "lat": -17.356651436601958,
        "lon": 77.7349395648413,
        "alt_km": 658.3541811032983,
        "timestamp": "2025-12-22T14:45:57.692412+00:00",
        "meta_object_name": "FENGYUN 1C DEB",
        "meta_object_id": "1999-025ELG",
        "meta_epoch": "2025-12-21T11:32:02.695200",
        "meta_mean_motion": 14.57828079,
        "meta_eccentricity": 0.02804596,
        "meta_inclination": 98.3729,
        "meta_ra_of_asc_node": 259.23,
        "meta_arg_of_pericenter": 122.9846,
        "meta_mean_anomaly": 239.8647,
        "meta_ephemeris_type": 0,
        "meta_classification_type": "U",
        "meta_norad_cat_id": 37691,
        "meta_element_set_no": 999,
        "meta_rev_at_epoch": 85761,
        "meta_bstar": 0.0012109089,
        "meta_mean_motion_dot": 9.521e-05,
        "meta_mean_motion_ddot": 0,
        "tle_line1": "1 37691U 99025ELG 25355.48058675  .00009521  00000+0  12109-2 0  9995",
        "tle_line2": "2 37691  98.3729 259.2300 0280459 122.9846 239.8647 14.57828079857614"
      },
      "geometry": {
        "type": "Point",
        "coordinates": [
          77.7349395648413,
          -17.356651436601958
        ]
      }
    },
    {
      "type": "Feature",
      "properties": {
        "norad_id": 37693,
        "name": "FENGYUN 1C DEB",
        "group": "fengyun-1c-debris",
        "lat": -46.69263273550487,
        "lon": 5.397148299525986,
        "alt_km": 874.8767991482837,
        "timestamp": "2025-12-22T14:45:57.692423+00:00",
        "meta_object_name": "FENGYUN 1C DEB",
        "meta_object_id": "1999-025ELJ",
        "meta_epoch": "2025-12-16T18:19:01.844256",
        "meta_mean_motion": 14.08494893,
        "meta_eccentricity": 0.00726586,
        "meta_inclination": 98.6941,
        "meta_ra_of_asc_node": 350.4139,
        "meta_arg_of_pericenter": 63.6223,
        "meta_mean_anomaly": 113.0699,
        "meta_ephemeris_type": 0,
        "meta_classification_type": "U",
        "meta_norad_cat_id": 37693,
        "meta_element_set_no": 999,
        "meta_rev_at_epoch": 62205,
        "meta_bstar": 0.00066899007,
        "meta_mean_motion_dot": 1.134e-05,
        "meta_mean_motion_ddot": 0,
        "tle_line1": "1 37693U 99025ELJ 25350.76321579  .00001134  00000+0  66899-3 0  9997",
        "tle_line2": "2 37693  98.6941 350.4139 0072658  63.6223 113.0699 14.08494893622056"
      },
      "geometry": {
        "type": "Point",
        "coordinates": [
          5.397148299525986,
          -46.69263273550487
        ]
      }
    }
  ]
}